[{"OBJECT_NAME":"STARLINK-6216","OBJECT_ID":"2023-083T","EPOCH":"2026-03-09T10:30:50.012640","MEAN_MOTION":15.02535415,"ECCENTRICITY":0.00013252,"INCLINATION":43.0042,"RA_OF_ASC_NODE":83.0492,"ARG_OF_PERICENTER":262.8072,"MEAN_ANOMALY":97.2619,"EPHEMERIS_TYPE":0,"CLASSIFICATION_TYPE":"U","NORAD_CAT_ID":56893,"ELEMENT_SET_NO":999,"REV_AT_EPOCH":15175,"BSTAR":-1.9915865e-5,"MEAN_MOTION_DOT":-4.73e-6,"MEAN_MOTION_DDOT":0},{"OBJECT_NAME":"CZ-6A DEB","OBJECT_ID":"2024-140NU","EPOCH":"2026-03-09T12:31:51.442752","MEAN_MOTION":14.86441835,"ECCENTRICITY":0.01338094,"INCLINATION":88.7229,"RA_OF_ASC_NODE":259.52,"ARG_OF_PERICENTER":124.7168,"MEAN_ANOMALY":236.6749,"EPHEMERIS_TYPE":0,"CLASSIFICATION_TYPE":"U","NORAD_CAT_ID":61102,"ELEMENT_SET_NO":999,"REV_AT_EPOCH":8243,"BSTAR":0.0019148109,"MEAN_MOTION_DOT":0.00019972,"MEAN_MOTION_DDOT":0}]
